{
  "type": "FeatureCollection",
  "features": [
    {
      "type": "Feature",
      "properties": {
        "norad_id": 38709,
        "name": "EXACTVIEW-1 (ADS-1B)",
        "group": "resource",
        "lat": -79.64271986356157,
        "lon": -153.35366306827578,
        "alt_km": 819.3793516255246,
        "timestamp": "2025-12-04T03:47:54.210643+00:00",
        "meta_object_name": "EXACTVIEW-1 (ADS-1B)",
        "meta_object_id": "2012-039C",
        "meta_epoch": "2025-12-03T04:39:01.818720",
        "meta_mean_motion": 14.24901374,
        "meta_eccentricity": 0.0011152,
        "meta_inclination": 98.9635,
        "meta_ra_of_asc_node": 85.3837,
        "meta_arg_of_pericenter": 21.4739,
        "meta_mean_anomaly": 338.6905,
        "meta_ephemeris_type": 0,
        "meta_classification_type": "U",
        "meta_norad_cat_id": 38709,
        "meta_element_set_no": 999,
        "meta_rev_at_epoch": 69479,
        "meta_bstar": 0.00011658,
        "meta_mean_motion_dot": 2.26e-06,
        "meta_mean_motion_ddot": 0,
        "tle_line1": "1 38709U 12039C   25337.19377105  .00000226  00000+0  11658-3 0  9998",
        "tle_line2": "2 38709  98.9635  85.3837 0011152  21.4739 338.6905 14.24901374694793"
      },
      "geometry": {
        "type": "Point",
        "coordinates": [
          -153.35366306827578,
          -79.64271986356157
        ]
      }
    },
    {
      "type": "Feature",
      "properties": {
        "norad_id": 38755,
        "name": "SPOT 6",
        "group": "resource",
        "lat": -25.458407092288784,
        "lon": 47.01653930447162,
        "alt_km": 703.7671945195207,
        "timestamp": "2025-12-04T03:47:54.210653+00:00",
        "meta_object_name": "SPOT 6",
        "meta_object_id": "2012-047A",
        "meta_epoch": "2025-12-03T11:27:07.631424",
        "meta_mean_motion": 14.58588774,
        "meta_eccentricity": 0.0001043,
        "meta_inclination": 98.1585,
        "meta_ra_of_asc_node": 42.4317,
        "meta_arg_of_pericenter": 100.1301,
        "meta_mean_anomaly": 260.0016,
        "meta_ephemeris_type": 0,
        "meta_classification_type": "U",
        "meta_norad_cat_id": 38755,
        "meta_element_set_no": 999,
        "meta_rev_at_epoch": 70452,
        "meta_bstar": 0.00014969,
        "meta_mean_motion_dot": 6.51e-06,
        "meta_mean_motion_ddot": 0,
        "tle_line1": "1 38755U 12047A   25337.47717166  .00000651  00000+0  14969-3 0  9994",
        "tle_line2": "2 38755  98.1585  42.4317 0001043 100.1301 260.0016 14.58588774704521"
      },
      "geometry": {
        "type": "Point",
        "coordinates": [
          47.01653930447162,
          -25.458407092288784
        ]
      }
    },
    {
      "type": "Feature",
      "properties": {
        "norad_id": 39019,
        "name": "PLEIADES 1B",
        "group": "resource",
        "lat": -53.757126290794396,
        "lon": -140.37215932177148,
        "alt_km": 705.6557920925052,
        "timestamp": "2025-12-04T03:47:54.210663+00:00",
        "meta_object_name": "PLEIADES 1B",
        "meta_object_id": "2012-068A",
        "meta_epoch": "2025-12-03T11:54:30.428928",
        "meta_mean_motion": 14.58538011,
        "meta_eccentricity": 0.0001254,
        "meta_inclination": 98.1807,
        "meta_ra_of_asc_node": 50.2935,
        "meta_arg_of_pericenter": 87.4904,
        "meta_mean_anomaly": 272.6439,
        "meta_ephemeris_type": 0,
        "meta_classification_type": "U",
        "meta_norad_cat_id": 39019,
        "meta_element_set_no": 999,
        "meta_rev_at_epoch": 69232,
        "meta_bstar": 0.00015103,
        "meta_mean_motion_dot": 6.56e-06,
        "meta_mean_motion_ddot": 0,
        "tle_line1": "1 39019U 12068A   25337.49618552  .00000656  00000+0  15103-3 0  9998",
        "tle_line2": "2 39019  98.1807  50.2935 0001254  87.4904 272.6439 14.58538011692326"
      },
      "geometry": {
        "type": "Point",
        "coordinates": [
          -140.37215932177148,
          -53.757126290794396
        ]
      }
    },
    {
      "type": "Feature",
      "properties": {
        "norad_id": 39030,
        "name": "GOKTURK 2",
        "group": "resource",
        "lat": -65.02018519733598,
        "lon": -162.90709644615342,
        "alt_km": 652.0582169053187,
        "timestamp": "2025-12-04T03:47:54.210673+00:00",
        "meta_object_name": "GOKTURK 2",
        "meta_object_id": "2012-073A",
        "meta_epoch": "2025-12-03T19:57:31.790016",
        "meta_mean_motion": 14.75270845,
        "meta_eccentricity": 8.04e-05,
        "meta_inclination": 97.6899,
        "meta_ra_of_asc_node": 179.923,
        "meta_arg_of_pericenter": 96.3833,
        "meta_mean_anomaly": 263.7468,
        "meta_ephemeris_type": 0,
        "meta_classification_type": "U",
        "meta_norad_cat_id": 39030,
        "meta_element_set_no": 999,
        "meta_rev_at_epoch": 69570,
        "meta_bstar": 0.00015604,
        "meta_mean_motion_dot": 1.009e-05,
        "meta_mean_motion_ddot": 0,
        "tle_line1": "1 39030U 12073A   25337.83161794  .00001009  00000+0  15604-3 0  9995",
        "tle_line2": "2 39030  97.6899 179.9230 0000804  96.3833 263.7468 14.75270845695706"
      },
      "geometry": {
        "type": "Point",
        "coordinates": [
          -162.90709644615342,
          -65.02018519733598
        ]
      }
    },
    {
      "type": "Feature",
      "properties": {
        "norad_id": 39084,
        "name": "LANDSAT 8",
        "group": "resource",
        "lat": 81.71553577002982,
        "lon": -36.09797890527453,
        "alt_km": 694.250436031346,
        "timestamp": "2025-12-04T03:47:54.210684+00:00",
        "meta_object_name": "LANDSAT 8",
        "meta_object_id": "2013-008A",
        "meta_epoch": "2025-12-03T10:54:41.068800",
        "meta_mean_motion": 14.57125296,
        "meta_eccentricity": 0.0001066,
        "meta_inclination": 98.2084,
        "meta_ra_of_asc_node": 45.6647,
        "meta_arg_of_pericenter": 88.7475,
        "meta_mean_anomaly": 271.3845,
        "meta_ephemeris_type": 0,
        "meta_classification_type": "U",
        "meta_norad_cat_id": 39084,
        "meta_element_set_no": 999,
        "meta_rev_at_epoch": 66939,
        "meta_bstar": 0.00016061,
        "meta_mean_motion_dot": 6.79e-06,
        "meta_mean_motion_ddot": 0,
        "tle_line1": "1 39084U 13008A   25337.45464200  .00000679  00000+0  16061-3 0  9999",
        "tle_line2": "2 39084  98.2084  45.6647 0001066  88.7475 271.3845 14.57125296669396"
      },
      "geometry": {
        "type": "Point",
        "coordinates": [
          -36.09797890527453,
          81.71553577002982
        ]
      }
    },
    {
      "type": "Feature",
      "properties": {
        "norad_id": 39086,
        "name": "SARAL",
        "group": "resource",
        "lat": 72.20029706020392,
        "lon": 10.144233683379706,
        "alt_km": 773.7961972179037,
        "timestamp": "2025-12-04T03:47:54.210694+00:00",
        "meta_object_name": "SARAL",
        "meta_object_id": "2013-009A",
        "meta_epoch": "2025-12-03T12:13:21.592416",
        "meta_mean_motion": 14.32751786,
        "meta_eccentricity": 0.0002626,
        "meta_inclination": 98.5506,
        "meta_ra_of_asc_node": 161.56,
        "meta_arg_of_pericenter": 126.3735,
        "meta_mean_anomaly": 233.7691,
        "meta_ephemeris_type": 0,
        "meta_classification_type": "U",
        "meta_norad_cat_id": 39086,
        "meta_element_set_no": 999,
        "meta_rev_at_epoch": 66758,
        "meta_bstar": 9.9233e-05,
        "meta_mean_motion_dot": 2.27e-06,
        "meta_mean_motion_ddot": 0,
        "tle_line1": "1 39086U 13009A   25337.50927769  .00000227  00000+0  99233-4 0  9994",
        "tle_line2": "2 39086  98.5506 161.5600 0002626 126.3735 233.7691 14.32751786667580"
      },
      "geometry": {
        "type": "Point",
        "coordinates": [
          10.144233683379706,
          72.20029706020392
        ]
      }
    },
    {
      "type": "Feature",
      "properties": {
        "norad_id": 39150,
        "name": "GAOFEN-1",
        "group": "resource",
        "lat": -26.300787101106025,
        "lon": 52.921166493693846,
        "alt_km": 657.9693955393841,
        "timestamp": "2025-12-04T03:47:54.210704+00:00",
        "meta_object_name": "GAOFEN-1",
        "meta_object_id": "2013-018A",
        "meta_epoch": "2025-12-03T11:39:15.988608",
        "meta_mean_motion": 14.76506897,
        "meta_eccentricity": 0.0017651,
        "meta_inclination": 97.9339,
        "meta_ra_of_asc_node": 48.308,
        "meta_arg_of_pericenter": 172.0771,
        "meta_mean_anomaly": 188.0721,
        "meta_ephemeris_type": 0,
        "meta_classification_type": "U",
        "meta_norad_cat_id": 39150,
        "meta_element_set_no": 999,
        "meta_rev_at_epoch": 67936,
        "meta_bstar": 0.00018967,
        "meta_mean_motion_dot": 1.273e-05,
        "meta_mean_motion_ddot": 0,
        "tle_line1": "1 39150U 13018A   25337.48560172  .00001273  00000+0  18967-3 0  9990",
        "tle_line2": "2 39150  97.9339  48.3080 0017651 172.0771 188.0721 14.76506897679369"
      },
      "geometry": {
        "type": "Point",
        "coordinates": [
          52.921166493693846,
          -26.300787101106025
        ]
      }
    }
  ]
}